{"type": "FeatureCollection", "features": [ {"type": "Feature", "properties": {"norad_id": 62339, "name": "GPS BIII-7  (PRN 01)", "group": "gps-ops", "lat": -2.66316521714918, "lon": 163.98349960936636, "alt_km": 20211.54190385332, "timestamp": "2025-12-03T15:48:03.331278+00:00", "meta": {"OBJECT_NAME": "GPS BIII-7  (PRN 01)", "OBJECT_ID": "2024-242A", "EPOCH": "2025-12-02T03:41:48.732000", "MEAN_MOTION": 2.00567227, "ECCENTRICITY": 0.0011644, "INCLINATION": 54.9268, "RA_OF_ASC_NODE": 342.1698, "ARG_OF_PERICENTER": 343.3913, "MEAN_ANOMALY": 193.6606, "EPHEMERIS_TYPE": 0, "CLASSIFICATION_TYPE": "U", "NORAD_CAT_ID": 62339, "ELEMENT_SET_NO": 999, "REV_AT_EPOCH": 730, "BSTAR": 0, "MEAN_MOTION_DOT": -6.2e-07, "MEAN_MOTION_DDOT": 0}, "tle": {"line1": "1 62339U 24242A   25336.15403625 -.00000062  00000+0  00000+0 0  9999", "line2": "2 62339  54.9268 342.1698 0011644 343.3913 193.6606  2.00567227  7306"}}, "geometry": {"type": "Point", "coordinates": [163.98349960936636, -2.66316521714918]}}, {"type": "Feature", "properties": {"norad_id": 64202, "name": "GPS BIII-8  (PRN 21)", "group": "gps-ops", "lat": 10.685353748615004, "lon": 46.58537805791947, "alt_km": 20176.178853850368, "timestamp": "2025-12-03T15:48:03.331289+00:00", "meta": {"OBJECT_NAME": "GPS BIII-8  (PRN 21)", "OBJECT_ID": "2025-116A", "EPOCH": "2025-12-03T06:10:25.375296", "MEAN_MOTION": 2.00558491, "ECCENTRICITY": 0.00049939, "INCLINATION": 55.0986, "RA_OF_ASC_NODE": 39.0246, "ARG_OF_PERICENTER": 306.9577, "MEAN_ANOMALY": 136.4728, "EPHEMERIS_TYPE": 0, "CLASSIFICATION_TYPE": "U", "NORAD_CAT_ID": 64202, "ELEMENT_SET_NO": 999, "REV_AT_EPOCH": 394, "BSTAR": 0, "MEAN_MOTION_DOT": -6.8e-07, "MEAN_MOTION_DDOT": 0}, "tle": {"line1": "1 64202U 25116A   25337.25723814 -.00000068  00000+0  00000+0 0  9994", "line2": "2 64202  55.0986  39.0246 0004993 306.9577 136.4728  2.00558491  3946"}}, "geometry": {"type": "Point", "coordinates": [46.58537805791947, 10.685353748615004]}}]}